"","name","street","city","zip","provider_category","FullAddressFormatted","lon","lat"
"1","ACCESS BLUE ISLAND MEDICAL CENTER","13000 Maple Ave","Blue Island","60406","CCDPH PARTNER","13000 Maple Ave Blue Island, IL 60406",-87.6852709,41.65685
"2","HAWTHORNE FAMILY HEALTH CENTER","3040 S CICERO AVE FL 2","Cicero","60804","CCDPH PARTNER","3040 S CICERO AVE FL 2 Cicero, IL 60804",-87.7443814,41.8375841
"3","ACCESS GENESIS FAMILY HEALTH CENTER","1 N BROADWAY ST","Des Plaines","60016","CCDPH PARTNER","1 N BROADWAY ST Des Plaines, IL 60016",-87.9090006,42.0517386
"4","ACCESS MELROSE PARK FAMILY HLTH CTR","8321 W NORTH AVE","Melrose Park","60160","CCDPH PARTNER","8321 W NORTH AVE Melrose Park, IL 60160",-87.8335945,41.9069637
"5","CCHS - AT ARLINGTON HEIGHTS","3250 N Arlington Heights Rd","Arlington Heights","60004","CCH PROVIDER","3250 N Arlington Heights Rd Arlington Heights, IL 60004",-87.9842356,42.1342995
"6","CCHHS - COTTAGE GROVE","1645 Cottage Grove Ave","Ford Heights","60411","CCH PROVIDER","1645 Cottage Grove Ave Ford Heights, IL 60411",-87.5961963,41.5040393
"7","CCHHS - CICERO","1800 S Harlem Ave","North Riverside","60546","CCH PROVIDER","1800 S Harlem Ave North Riverside, IL 60546",-87.8053927,41.8556212
"8","CCHHS - ROBBINS","13450 S Kedzie Ave","Robbins","60472","CCH PROVIDER","13450 S Kedzie Ave Robbins, IL 60472",-87.6997484,41.6486525
"9","CCHHS - MORTON EAST","2423 S Austin Blvd","Cicero","60804","CCH PROVIDER","2423 S Austin Blvd Cicero, IL 60804",-87.7707986,41.8465895
"10","ADVOCATE LUTHERAN GENERAL","1775 DEMPSTER ST","Park Ridge","60068","CCDPH PARTNER","1775 DEMPSTER ST Park Ridge, IL 60068",-87.847611,42.0384783
"11","ADVOCATE SOUTH SUBURBAN HOSPITAL","17800 KEDZIE AVE","Hazel Crest","60429","CCDPH PARTNER","17800 KEDZIE AVE Hazel Crest, IL 60429",-87.696602,41.5663888
"12","ADVOCATE CHRIST MEDICAL CENTER","4440 W 95TH ST","Oak Lawn","60453","CCDPH PARTNER","4440 W 95TH ST Oak Lawn, IL 60453",-87.7326182,41.721808
"13","ALIVIO MEDICAL CENTER AT CICERO","6447 CERMAK RD","BERWYN","60402","CCDPH PARTNER","6447 CERMAK RD BERWYN, IL 60402",-87.7857601,41.8504675
"14","AUNT MARTHAS SOUTH HOLLAND","52 W 162nd St","South Holland","60473","CCDPH PARTNER","52 W 162nd St South Holland, IL 60473",-87.6183713,41.6010282
"15","AUNT MARTHAS CHICAGO HGTS","1536 Vincennes Ave.","Chicago Heights","60411","CCDPH PARTNER","1536 Vincennes Ave. Chicago Heights, IL 60411",-87.6385725,41.5030113
"16","AUNT MARTHA'S HEALTH & WELLNESS HAZEL CREST","17850 KEDZIE AVE STE 1150","Hazel Crest","60429","CCDPH PARTNER","17850 KEDZIE AVE STE 1150 Hazel Crest, IL 60429",-87.6968588,41.5654823
"17","EPIC URGENT CARE PC","770, E Dundee Rd","Palatine","60074","CCDPH PARTNER","770, E Dundee Rd Palatine, IL 60074",-88.0240802,42.1395866
"18","FAMILY CHRISTIAN HEALTH CENTER","31 W 155th Street","Harvey","60426","CCDPH PARTNER","31 W 155th Street Harvey, IL 60426",-87.6579589,41.6084339
"19","GENOAPHARMACY 00149 BERWYN","7000 CERMAK RD STE 145B","Berwyn","60402","CCDPH PARTNER","7000 CERMAK RD STE 145B Berwyn, IL 60402",-87.798708,41.8507577
"20","CREEKSIDE HEALTH CENTER","300 MCHENRY RD","Wheeling","60090","CCDPH PARTNER","300 MCHENRY RD Wheeling, IL 60090",-87.9360489,42.1434764
"21","GREATER ELGIN FAM CARE - STREAMWOOD","135 E IRVING PARK RD","Streamwood","60107","CCDPH PARTNER","135 E IRVING PARK RD Streamwood, IL 60107",-88.179291,42.0124524
"22","JENCARE  NMC BERWYN LLC","6326 CERMAK RD","BERWYN","60402","CCDPH PARTNER","6326 CERMAK RD BERWYN, IL 60402",-87.7825711,41.8510824
"23","JENCARE NMC GLENWOOD LLC","19310 S HALSTED ST","Glenwood","60425","CCDPH PARTNER","19310 S HALSTED ST Glenwood, IL 60425",-87.636645,41.5384063
"24","JENCARE NMC OAK LAWN LLC","6101 W 95TH ST","Oak Lawn","60453","CCDPH PARTNER","6101 W 95TH ST Oak Lawn, IL 60453",-87.7729783,41.7193926
"25","JENCARE SMC DOLTON","600 E SIBLEY BLVD","Dolton","60419","CCDPH PARTNER","600 E SIBLEY BLVD Dolton, IL 60419",-87.6071744,41.6233026
"26","JEWEL-OSCO - 2504","3243 W 115th St","Merrionette Park","60803","CCDPH PARTNER","3243 W 115th St Merrionette Park, IL 60803",-87.7011536,41.6831467
"27","JEWEL-OSCO - 3051","9352 W 159th St","Orland Park","60462","CCDPH PARTNER","9352 W 159th St Orland Park, IL 60462",-87.847532,41.60344
"28","JEWEL-OSCO - 3182","1202 State Street","Lemont","60439","CCDPH PARTNER","1202 State Street Lemont, IL 60439",-88.0016001,41.6554073
"29","JEWEL-OSCO - 3188","17705 Halsted St","Homewood","60430","CCDPH PARTNER","17705 Halsted St Homewood, IL 60430",-87.6338576,41.567842
"30","JEWEL-OSCO - 3223","7523 Lake St","River Forest","60305","CCDPH PARTNER","7523 Lake St River Forest, IL 60305",-87.8131577,41.8882754
"31","JEWEL-OSCO - 3290","806 W. North Avenue","Melrose Park","60160","CCDPH PARTNER","806 W. North Avenue Melrose Park, IL 60160",-87.8421819,41.907626
"32","JEWEL-OSCO - 3429","8730 W Dempster St","Niles","60714","CCDPH PARTNER","8730 W Dempster St Niles, IL 60714",-87.844183,42.040851
"33","JEWEL-OSCO - 3456","411 Green Bay Road","Wilmette","60091","CCDPH PARTNER","411 Green Bay Road Wilmette, IL 60091",-87.7062863,42.0724759
"34","JEWEL-OSCO - 3474","423 E. Dundee Road","Palatine","60067","CCDPH PARTNER","423 E. Dundee Road Palatine, IL 60067",-88.0326895,42.1378741
"35","JEWEL-OSCO - 3308","1151 S Roselle Rd","Schaumburg","60193","CCDPH PARTNER","1151 S Roselle Rd Schaumburg, IL 60193",-88.0780147,42.0063103
"36","JEWEL-OSCO - 0086","8801 S. Ridgeland","Oak Lawn","60453","CCDPH PARTNER","8801 S. Ridgeland Oak Lawn, IL 60453",-87.7802962,41.7317346
"37","JEWEL-OSCO - 3098","12001 S. Pulaski Road","Alsip","60803","CCDPH PARTNER","12001 S. Pulaski Road Alsip, IL 60803",-87.7179389,41.6742056
"38","JEWEL-OSCO - 3220","22 Biesterfield Road","Elk Grove Village","60007","CCDPH PARTNER","22 Biesterfield Road Elk Grove Village, IL 60007",-88.0052117,42.0036918
"39","JEWEL-OSCO - 3425","1480 Lee Street","Des Plaines","60018","CCDPH PARTNER","1480 Lee Street Des Plaines, IL 60018",-87.8945222,42.0266153
"40","JEWEL-OSCO - 3461","1860 S Arlington Heights Rd","Arlington Heights","60005","CCDPH PARTNER","1860 S Arlington Heights Rd Arlington Heights, IL 60005",-87.983853,42.0523392
"41","JEWEL-OSCO - 3486","1489 Palatine Rd","Hoffman Estates","60192","CCDPH PARTNER","1489 Palatine Rd Hoffman Estates, IL 60192",-88.0793295,42.1098425
"42","LOYOLA UNIVERSITY MEDICAL CENTER","2160 S 1st Ave","Maywood","60153","CCDPH PARTNER","2160 S 1st Ave Maywood, IL 60153",-87.833341,41.8598649
"43","GOTTLIEB MEMORIAL HOSPITAL","701 W North Ave","Melrose Park","60160","CCDPH PARTNER","701 W North Ave Melrose Park, IL 60160",-87.8418095,41.910205
"44","MACNEAL HOSPITAL","3249 S Oak Park Ave","Berwyn","60402","CCDPH PARTNER","3249 S Oak Park Ave Berwyn, IL 60402",-87.7916177,41.8321601
"45","MARIANO PHARMACY 501","802 E Northwest Highway","Arlington Heights","60004","CCDPH PARTNER","802 E Northwest Highway Arlington Heights, IL 60004",-87.9729871,42.0804331
"46","MARIANO PHARMACY 505","545 N Hicks Rd","Palatine","60067","CCDPH PARTNER","545 N Hicks Rd Palatine, IL 60067",-88.031876,42.1199166
"47","MARIANO PHARMACY 506","2575 W Golf Road","Hoffman Estates","60169","CCDPH PARTNER","2575 W Golf Road Hoffman Estates, IL 60169",-88.1430159,42.0451202
"48","MARIANO PHARMACY 510","7401 W Lawrence Avenue","Harwood Heights","60706","CCDPH PARTNER","7401 W Lawrence Avenue Harwood Heights, IL 60706",-87.8128243,41.9655408
"49","MARIANO PHARMACY 517","11000 Cicero Avenue","Oak Lawn","60453","CCDPH PARTNER","11000 Cicero Avenue Oak Lawn, IL 60453",-87.7417303,41.6932669
"50","MARIANO PHARMACY 518","25 Waukegab Rd","Glenview","60025","CCDPH PARTNER","25 Waukegab Rd Glenview, IL 60025",-87.7976136,42.0560333
"51","MARIANO PHARMACY 524","1822 Willow Road","Northfield","60093","CCDPH PARTNER","1822 Willow Road Northfield, IL 60093",-87.7712598,42.1000321
"52","MARIANO PHARMACY 525","1900 S Cumberland Ave","Park Ridge","60068","CCDPH PARTNER","1900 S Cumberland Ave Park Ridge, IL 60068",-87.8379378,41.9871968
"53","MARIANO PHARMACY 528","3020 Wolf Road","Westchester","60154","CCDPH PARTNER","3020 Wolf Road Westchester, IL 60154",-87.8996113,41.8355069
"54","MARIANO PHARMACY 529","4700 Gilbert Ave","Western Springs","60558","CCDPH PARTNER","4700 Gilbert Ave Western Springs, IL 60558",-87.8904291,41.803648
"55","MARIANO PHARMACY 530","2559 W 95th St","Evergreen Park","60805","CCDPH PARTNER","2559 W 95th St Evergreen Park, IL 60805",-87.6878691,41.7194431
"56","MARIANO PHARMACY 541","10 E Golf Rd","Des Plaines","60016","CCDPH PARTNER","10 E Golf Rd Des Plaines, IL 60016",-87.9201503,42.0505878
"57","MARIANO PHARMACY 532","2323 Capital Drive","Northbrook","60062","CCDPH PARTNER","2323 Capital Drive Northbrook, IL 60062",-87.8725567,42.1110661
"58","MARIANO PHARMACY 533","784 Skokie Blvd","Northbrook","60062","CCDPH PARTNER","784 Skokie Blvd Northbrook, IL 60062",-87.7942313,42.139665
"59","MARIANO PHARMACY 535","9504 142nd St","Orland Park","60462","CCDPH PARTNER","9504 142nd St Orland Park, IL 60462",-87.8521578,41.6336379
"60","OAK STREET HEALTH BERWYN","7000 Cermak Rd","Berwyn","60402","CCDPH PARTNER","7000 Cermak Rd Berwyn, IL 60402",-87.798708,41.8507577
"61","OAK ST HEALTH LINCOLN CROSSING","1401 Western Ave","Chicago Heights","60411","CCDPH PARTNER","1401 Western Ave Chicago Heights, IL 60411",-87.6737548,41.5055607
"62","OAK STREET HEALTH BELLWOOD","456 25th Ave","Bellwood","60104","CCDPH PARTNER","456 25th Ave Bellwood, IL 60104",-87.8646331,41.8842918
"63","OAK STREET HEALTH BLUE ISLAND","3076 W 127th St/ 3046 BURR OAK AVE","Blue Island","60406","CCDPH PARTNER","3076 W 127th St/ 3046 BURR OAK AVE Blue Island, IL 60406",-87.6955904,41.6628179
"64","PCC SOUTH FAMILY HEALTH CENTER","6201 Roosevelt Rd","Berwyn","60402","CCDPH PARTNER","6201 Roosevelt Rd Berwyn, IL 60402",-87.7792925,41.8651005
"65","PCC MELROSE PARK FAMILY HEALTH CTR","1111 SUPERIOR ST","Melrose Park","60160","CCDPH PARTNER","1111 SUPERIOR ST Melrose Park, IL 60160",-87.8478388,41.8929604
"66","PILLARS COMMUNITY HEALTH","110 W CALENDAR AVE","La Grange","60525","CCDPH PARTNER","110 W CALENDAR AVE La Grange, IL 60525",-87.871357,41.8144
"67","PRISM HOLISTIC CARE LTD. PRISM HEALTH","1845 S LARAMIE AVE","CICERO","60804","CCDPH PARTNER","1845 S LARAMIE AVE CICERO, IL 60804",-87.753828,41.854991
"68","WALGREEN CO. STORE # 3057","3959 W 95TH ST/ 3545 W 95TH ST","Evergreen Park","60805","CCDPH PARTNER","3959 W 95TH ST/ 3545 W 95TH ST Evergreen Park, IL 60805",-87.7105941,41.7204132
"69","WALGREEN CO. STORE # 1201","800 DEVON AVE","Park Ridge","60068","CCDPH PARTNER","800 DEVON AVE Park Ridge, IL 60068",-87.8336288,41.9970211
"70","WALGREEN CO. STORE # 2785","5840 W 35TH ST","Cicero","60804","CCDPH PARTNER","5840 W 35TH ST Cicero, IL 60804",-87.7699711,41.8292483
"71","WALGREEN CO. STORE # 3076","7251 LAKE ST","River Forest","60305","CCDPH PARTNER","7251 LAKE ST River Forest, IL 60305",-87.8066974,41.8881604
"72","WALGREEN CO. STORE # 4874","6600 WILLOW SPRINGS RD","La Grange Highlands","60525","CCDPH PARTNER","6600 WILLOW SPRINGS RD La Grange Highlands, IL 60525",-87.8880348,41.7702967
"73","WALGREEN CO. STORE # 5962","4820 N CUMBERLAND AVE","Norridge","60706","CCDPH PARTNER","4820 N CUMBERLAND AVE Norridge, IL 60706",-87.8370934,41.9675976
"74","WALGREEN CO. STORE # 6564","522 TORRENCE AVE","Calumet City","60409","CCDPH PARTNER","522 TORRENCE AVE Calumet City, IL 60409",-87.5594386,41.6214287
"75","WALGREEN CO. STORE # 9600","1445 W NORTH AVE","Melrose Park","60160","CCDPH PARTNER","1445 W NORTH AVE Melrose Park, IL 60160",-87.8519053,41.9089132
"76","WALGREEN CO. STORE # 1249","4800 W CERMAK RD","Cicero","60804","CCDPH PARTNER","4800 W CERMAK RD Cicero, IL 60804",-87.7445743,41.8515925
"77","WALGREEN CO. STORE # 3433","2560 W GOLF RD","Hoffman Estates","60169","CCDPH PARTNER","2560 W GOLF RD Hoffman Estates, IL 60169",-88.1427872,42.0473587
"78","WALGREEN CO. STORE # 3928","18301 PULASKI AVE","Hazel Crest","60429","CCDPH PARTNER","18301 PULASKI AVE Hazel Crest, IL 60429",-87.7128743,41.5565985
"79","WALGREEN CO. STORE # 3995","6 E NORTH AVE","Northlake","60164","CCDPH PARTNER","6 E NORTH AVE Northlake, IL 60164",-87.9024475,41.9077655
"80","WALGREEN CO. STORE # 4148","7960 W 159TH ST","Orland Park","60462","CCDPH PARTNER","7960 W 159TH ST Orland Park, IL 60462",-87.8129835,41.6026712
"81","WALGREEN CO. STORE # 4438","930 ELK GROVE TOWN CTR","Elk Grove Village","60007","CCDPH PARTNER","930 ELK GROVE TOWN CTR Elk Grove Village, IL 60007",-88.0061633,42.0031052
"82","WALGREEN CO. STORE # 5086","3120 CHICAGO RD","South Chicago Heights","60411","CCDPH PARTNER","3120 CHICAGO RD South Chicago Heights, IL 60411",-87.6383026,41.4817264
"83","WALGREEN CO. STORE # 5127","18133 TORRENCE AVE","Lansing","60438","CCDPH PARTNER","18133 TORRENCE AVE Lansing, IL 60438",-87.5583573,41.5654423
"84","WALGREEN CO. STORE # 5128","2601 E SAUK TRL","Sauk Village","60411","CCDPH PARTNER","2601 E SAUK TRL Sauk Village, IL 60411",-87.5586662,41.4917834
"85","WALGREEN CO. STORE # 5139","7945 W 95TH ST","Hickory Hills","60457","CCDPH PARTNER","7945 W 95TH ST Hickory Hills, IL 60457",-87.8172105,41.7179341
"86","WALGREEN CO. STORE # 5684","8800 W 95TH ST","Hickory Hills","60457","CCDPH PARTNER","8800 W 95TH ST Hickory Hills, IL 60457",-87.8378625,41.7187149
"87","WALGREEN CO. STORE # 9141","8700 S KEDZIE AVE","Evergreen Park","60805","CCDPH PARTNER","8700 S KEDZIE AVE Evergreen Park, IL 60805",-87.7028631,41.7345823
"88","ACCESS @ NORTHWEST COMMUNITY","1120 N Arlington Heights Rd","Arlington Heights","60004","CCDPH PARTNER","1120 N Arlington Heights Rd Arlington Heights, IL 60004",-87.9817872,42.0964237
"89","ACCESS FAMILY HEALTH SOCIETY","152 W LINCOLN HWY","Chicago Heights","60411","CCDPH PARTNER","152 W LINCOLN HWY Chicago Heights, IL 60411",-87.6471297,41.5057625
"90","COOK COUNTY BLUE ISLAND HEALTH CENTER","12757 S Western Ave","Blue Island","60406","CCH PROVIDER","12757 S Western Ave Blue Island, IL 60406",-87.6796095,41.6609793
"91","MAINE EAST SCHOOL BASED HEALTH","2601 DEMPSTER ST STE 37","PARK RIDGE","60068","CCDPH PARTNER","2601 DEMPSTER ST STE 37 PARK RIDGE, IL 60068",-87.8575843,42.0373803
"92","AUNT MARTHA HARVEY HEALTH AND OUTREACH","15420 DIXIE HWY","Harvey","60426","CCDPH PARTNER","15420 DIXIE HWY Harvey, IL 60426",-87.6712895,41.6087818
"93","FAMILY CHC DOLTON","713 E 142ND ST","Dolton","60419","CCDPH PARTNER","713 E 142ND ST Dolton, IL 60419",-87.6020899,41.6369286
"94","JEWEL-OSCO - 3228","2128 S. Manheim Road","Westchester","60154","CCDPH PARTNER","2128 S. Manheim Road Westchester, IL 60154",-87.8821304,41.8497757
"95","JEWEL-OSCO - 2501","1340 Patriot Blvd.","Glenview","60026","CCDPH PARTNER","1340 Patriot Blvd. Glenview, IL 60026",-87.8195113,42.0787105
"96","JEWEL-OSCO - 3029","9534 S. Roberts Road","Hickory Hills","60457","CCDPH PARTNER","9534 S. Roberts Road Hickory Hills, IL 60457",-87.8179581,41.7173248
"97","JEWEL-OSCO - 3154","5545 S. Brainard Avenue","Countryside","60525","CCDPH PARTNER","5545 S. Brainard Avenue Countryside, IL 60525",-87.8778358,41.7897647
"98","RUSH OAK PARK NORTH RIVERSIDE","7222 W CERMAK RD STE 700","North Riverside","60546","CCDPH PARTNER","7222 W CERMAK RD STE 700 North Riverside, IL 60546",-87.8053143,41.8507574
"99","WALGREEN CO. STORE # 11109","4800 148TH ST","Midlothian","60445","CCDPH PARTNER","4800 148TH ST Midlothian, IL 60445",-87.7379609,41.6236661
"100","WALGREEN CO. STORE # 1450","4101 1ST AVE","Lyons","60534","CCDPH PARTNER","4101 1ST AVE Lyons, IL 60534",-87.8332551,41.8155712
"101","WALGREEN CO. STORE # 2721","9000 N GREENWOOD AVE","Niles","60714","CCDPH PARTNER","9000 N GREENWOOD AVE Niles, IL 60714",-87.8413919,42.0441135
"102","WALGREEN CO. STORE # 2986","815 SUMMIT ST","Elgin","60120","CCDPH PARTNER","815 SUMMIT ST Elgin, IL 60120",-88.2595783,42.0459356
"103","WALGREEN CO. STORE # 39","235 E PALATINE RD","Arlington Heights","60004","CCDPH PARTNER","235 E PALATINE RD Arlington Heights, IL 60004",-87.9798743,42.1078973
"104","WALGREEN CO. STORE # 5670","2 N LA GRANGE RD","La Grange","60525","CCDPH PARTNER","2 N LA GRANGE RD La Grange, IL 60525",-87.8700891,41.8167236
"105","WALGREEN CO. STORE # 5683","1403 Waukegan Rd ","Glenview","60025","CCDPH PARTNER","1403 Waukegan Rd  Glenview, IL 60025",-87.7971339,42.0806267
"106","WALGREEN CO. STORE # 6462","9595 GRAND AVE","Franklin Park","60131","CCDPH PARTNER","9595 GRAND AVE Franklin Park, IL 60131",-87.8642591,41.9290713
"107","WALGREEN CO. STORE # 6760","1000 N ROSELLE RD","Hoffman Estates","60169","CCDPH PARTNER","1000 N ROSELLE RD Hoffman Estates, IL 60169",-88.0803815,42.0460261
"108","WALGREEN CO. STORE # 7411","3200 VOLLMER RD","Olympia Fields","60461","CCDPH PARTNER","3200 VOLLMER RD Olympia Fields, IL 60461",-87.6945509,41.5272097
"109","WALGREEN CO. STORE # 9924","390 E 162ND ST","South Holland","60473","CCDPH PARTNER","390 E 162ND ST South Holland, IL 60473",-87.6079152,41.6012504
"110","WALGREEN CO. STORE # 1449","8000 BROADVIEW VILLAGE SQ","Broadview","60155","CCDPH PARTNER","8000 BROADVIEW VILLAGE SQ Broadview, IL 60155",-87.8501411,41.8498816
"111","WALGREEN CO. STORE # 209","1028 S ELMHURST RD","Mount Prospect","60056","CCDPH PARTNER","1028 S ELMHURST RD Mount Prospect, IL 60056",-87.9424413,42.0462726
"112","WALGREEN CO. STORE # 3927","13 E IRVING PARK RD","Streamwood","60107","CCDPH PARTNER","13 E IRVING PARK RD Streamwood, IL 60107",-88.1818637,42.0126734
"113","WALGREEN CO. STORE # 3729","7350 BARRINGTON RD","Hanover Park","60133","CCDPH PARTNER","7350 BARRINGTON RD Hanover Park, IL 60133",-88.1455316,42.0051734
"114","WALGREEN CO. STORE # 3940","375 E DUNDEE RD","Palatine","60074","CCDPH PARTNER","375 E DUNDEE RD Palatine, IL 60074",-88.0345693,42.1387092
"115","WALGREEN CO. STORE # 4947","13501 CICERO AVE","Crestwood","60418","CCDPH PARTNER","13501 CICERO AVE Crestwood, IL 60418",-87.7371915,41.6468625
"116","WALGREEN CO. STORE # 5076","6800 OGDEN AVE","Berwyn","60402","CCDPH PARTNER","6800 OGDEN AVE Berwyn, IL 60402",-87.7934711,41.8266158
"117","WALGREEN CO. STORE # 5384","4700 GILBERT AVE","Western Springs","60558","CCDPH PARTNER","4700 GILBERT AVE Western Springs, IL 60558",-87.8904291,41.803648
"118","WALGREEN CO. STORE # 9246","1000 E NORTHWEST HWY","Arlington Heights","60004","CCDPH PARTNER","1000 E NORTHWEST HWY Arlington Heights, IL 60004",-87.9713034,42.0796309
"119","ACCESS NORTHWEST FAMILY HLTH CTR","1120 N ARLINGTON HEIGHTS RD","ARLINGTON HEIGHTS","60004-4767","OTHER","1120 N ARLINGTON HEIGHTS RD ARLINGTON HEIGHTS, IL 60004-4767",-87.9817872,42.0964237
"120","ADVENTIST LA GRANGE MEMORIAL HOSP (ACFPC","5101 WILLOW SPRINGS RD","LA GRANGE","60525-2600","OTHER","5101 WILLOW SPRINGS RD LA GRANGE, IL 60525-2600",-87.8863882,41.7967451
"121","ALEXIAN BROTHERS HOSPITAL","800 BIESTERFIELD RD","ELK GROVE VILLAGE","60007-3361","OTHER","800 BIESTERFIELD RD ELK GROVE VILLAGE, IL 60007-3361",-88.0155173,42.0054052
"122","CICERO HEALTH DEPARTMENT","2250 S 49TH AVE","CICERO","60804-2460","OTHER","2250 S 49TH AVE CICERO, IL 60804-2460",-87.747807,41.849789
"123","COOK COUNTY DEPARTMENT OF PUBLIC HEALTH","15900 S CICERO AVENUE ADMINISTRATION","OAK FOREST","60452-","OTHER","15900 S CICERO AVENUE ADMINISTRATION OAK FOREST, IL 60452-",-87.7325592,41.5974197
"124","ELISABETH LUDEMAN CENTER","114 N ORCHARD DR","PARK FOREST","60466-1200","OTHER","114 N ORCHARD DR PARK FOREST, IL 60466-1200",-87.686539,41.495513
"125","FRANCISCAN HEALTH - OLYMPIA FIELDS","20201 CRAWFORD AVE","OLYMPIA FIELDS","60461-1010","OTHER","20201 CRAWFORD AVE OLYMPIA FIELDS, IL 60461-1010",-87.710796,41.5232407
"126","GLENBROOK HOSPITAL","2100 PFINGSTEN RD","GLENVIEW","60026-1301","OTHER","2100 PFINGSTEN RD GLENVIEW, IL 60026-1301",-87.8548953,42.0924791
"127","INGALLS MEMORIAL HOSPITAL","1 INGALLS DR","HARVEY","60426-3558","OTHER","1 INGALLS DR HARVEY, IL 60426-3558",-87.6596073,41.6074558
"128","MADDEN MENTAL HEALTH","1200 S 1ST AVE","HINES","60141-0800","OTHER","1200 S 1ST AVE HINES, IL 60141-0800",-87.8333971,41.8629626
"129","NORTHWEST COMMUNITY HEALTHCARE MEDICAL G","800 W CENTRAL RD","ARLINGTON HEIGHTS","60005-2349","OTHER","800 W CENTRAL RD ARLINGTON HEIGHTS, IL 60005-2349",-87.9924834,42.0681926
"130","OSF LITTLE COMPANY OF MARY - PHARMACIST","2800 W 95TH ST","EVERGREEN PARK","60805-2701","OTHER","2800 W 95TH ST EVERGREEN PARK, IL 60805-2701",-87.6923621,41.7210663
"131","PALOS COMMUNITY HOSPITAL PHARMACY","12251 S 80TH AVE","PALOS HEIGHTS","60463-1256","OTHER","12251 S 80TH AVE PALOS HEIGHTS, IL 60463-1256",-87.8121386,41.6690972
"132","SAINT ALEXIUS MEDICAL CENTER","1555 BARRINGTON RD","HOFFMAN ESTATES","60169-1019","OTHER","1555 BARRINGTON RD HOFFMAN ESTATES, IL 60169-1019",-88.1410337,42.0529739
"133","ALEXIAN BROTHERS HOSPITAL","800 BIESTERFIELD RD","ELK GROVE VILLAGE","60007-3378","OTHER","800 BIESTERFIELD RD ELK GROVE VILLAGE, IL 60007-3378",-88.0155173,42.0054052
"134","SAINT ALEXIUS MEDICAL CENTER","1555 BARRINGTON RD","HOFFMAN ESTATES","60169-1064","OTHER","1555 BARRINGTON RD HOFFMAN ESTATES, IL 60169-1064",-88.1410337,42.0529739
"135","CVS HEALTH - PHARMACY # 00834","8811 W 87TH ST","HICKORY HILLS","60457-1001","OTHER","8811 W 87TH ST HICKORY HILLS, IL 60457-1001",-87.8392427,41.7322377
"136","CVS HEALTH - PHARMACY # 01773","9551 171ST ST","TINLEY PARK","60487-6109","OTHER","9551 171ST ST TINLEY PARK, IL 60487-6109",-87.851062,41.5789084
"137","CVS HEALTH - PHARMACY # 01965","7200 W CERMAK RD","NORTH RIVERSIDE","60546-1402","OTHER","7200 W CERMAK RD NORTH RIVERSIDE, IL 60546-1402",-87.804374,41.8508232
"138","CVS HEALTH - PHARMACY # 02863","2045 PLUM GROVE RD","ROLLING MEADOWS","60008-1992","OTHER","2045 PLUM GROVE RD ROLLING MEADOWS, IL 60008-1992",-88.0444849,42.0879273
"139","CVS HEALTH - PHARMACY # 03110","1002 S BUSSE RD","MT PROSPECT","60056-4570","OTHER","1002 S BUSSE RD MT PROSPECT, IL 60056-4570",-87.960779,42.0477198
"140","CVS HEALTH - PHARMACY # 07255","680 S SUTTON RD","STREAMWOOD","60107-2368","OTHER","680 S SUTTON RD STREAMWOOD, IL 60107-2368",-88.2038863,42.019869
"141","JEWEL-OSCO - 0001","1340 PATRIOT BLVD","GLENVIEW","60026-7777","OTHER","1340 PATRIOT BLVD GLENVIEW, IL 60026-7777",-87.8195113,42.0787105
"142","JEWEL-OSCO - 0754","5545 S BRAINARD AVE","COUNTRYSIDE","60525-3542","OTHER","5545 S BRAINARD AVE COUNTRYSIDE, IL 60525-3542",-87.8778358,41.7897647
"143","JEWEL-OSCO - 4029","9534 S ROBERTS RD","HICKORY HILLS","60457-2239","OTHER","9534 S ROBERTS RD HICKORY HILLS, IL 60457-2239",-87.8179581,41.7173248
"144","JEWEL-OSCO - 4228","2128 S MANNHEIM RD","WESTCHESTER","60154-4339","OTHER","2128 S MANNHEIM RD WESTCHESTER, IL 60154-4339",-87.8821304,41.8497757
"145","OSCO PHARMACY","335 E EUCLID AVE","MOUNT PROSPECT","60056-1288","OTHER","335 E EUCLID AVE MOUNT PROSPECT, IL 60056-1288",-87.9308135,42.0877583
"146","WALGREEN DRUG STORE","811 GREEN BAY RD","WILMETTE","60091-2519","OTHER","811 GREEN BAY RD WILMETTE, IL 60091-2519",-87.7109115,42.0780317
"147","WALGREEN DRUG STORE","4800 148TH ST","MIDLOTHIAN","60445-3117","OTHER","4800 148TH ST MIDLOTHIAN, IL 60445-3117",-87.7379609,41.6236661
"148","WALGREEN DRUG STORE","7113 CERMAK RD","BERWYN","60402-2103","OTHER","7113 CERMAK RD BERWYN, IL 60402-2103",-87.8011542,41.8498883
"149","WALGREEN DRUG STORE","11981 W 143RD ST","ORLAND PARK","60467-7218","OTHER","11981 W 143RD ST ORLAND PARK, IL 60467-7218",-87.9108782,41.6289535
"150","WALGREEN DRUG STORE","1050 WAUKEGAN RD","NORTHBROOK","60062-3700","OTHER","1050 WAUKEGAN RD NORTHBROOK, IL 60062-3700",-87.8220468,42.1330426
"151","WALGREEN DRUG STORE","1180 S ROSELLE RD","SCHAUMBURG","60193-4072","OTHER","1180 S ROSELLE RD SCHAUMBURG, IL 60193-4072",-88.0808395,42.0058158
"152","WALGREEN DRUG STORE","8000 BROADVIEW VILLAGE SQ","BROADVIEW","60155-2601","OTHER","8000 BROADVIEW VILLAGE SQ BROADVIEW, IL 60155-2601",-87.8501411,41.8498816
"153","WALGREEN DRUG STORE","4101 1ST AVE","LYONS","60534-1028","OTHER","4101 1ST AVE LYONS, IL 60534-1028",-87.8332551,41.8155712
"154","WALGREEN DRUG STORE","10639 S CICERO AVE","OAK LAWN","60453-5269","OTHER","10639 S CICERO AVE OAK LAWN, IL 60453-5269",-87.7391917,41.6987413
"155","WALGREEN PHARMACY","353 PARK AVE","GLENCOE","60022-1530","OTHER","353 PARK AVE GLENCOE, IL 60022-1530",-87.7596503,42.1344697
"156","WALGREEN DRUG STORE","3232 LAKE AVE","WILMETTE","60091-1073","OTHER","3232 LAKE AVE WILMETTE, IL 60091-1073",-87.7565336,42.0822528
"157","WALGREEN DRUG STORE","1028 S ELMHURST RD","MT PROSPECT","60056-4240","OTHER","1028 S ELMHURST RD MT PROSPECT, IL 60056-4240",-87.9424413,42.0462726
"158","WALGREEN DRUG STORE","1858 E OAKTON ST","DES PLAINES","60018-2112","OTHER","1858 E OAKTON ST DES PLAINES, IL 60018-2112",-87.8780659,42.0246911
"159","WALGREEN DRUG STORE","14700 HALSTED ST","HARVEY","60426-1921","OTHER","14700 HALSTED ST HARVEY, IL 60426-1921",-87.6420033,41.6222116
"160","WALGREEN DRUG STORE","815 SUMMIT ST","ELGIN","60120-4315","OTHER","815 SUMMIT ST ELGIN, IL 60120-4315",-88.2595783,42.0459356
"161","WALGREEN DRUG STORE","820 183RD ST","HOMEWOOD","60430-3505","OTHER","820 183RD ST HOMEWOOD, IL 60430-3505",-87.6373775,41.5580496
"162","WALGREEN DRUG STORE","1711 W CAMPBELL ST","ARLINGTON HEIGHTS","60005-1517","OTHER","1711 W CAMPBELL ST ARLINGTON HEIGHTS, IL 60005-1517",-88.0042898,42.0818457
"163","WALGREEN DRUG STORE","20950 GOVERNORS HWY","OLYMPIA FIELDS","60461-1039","OTHER","20950 GOVERNORS HWY OLYMPIA FIELDS, IL 60461-1039",-87.712451,41.5085594
"164","WALGREEN DRUG STORE","15575 E 127TH ST","LEMONT","60439-4433","OTHER","15575 E 127TH ST LEMONT, IL 60439-4433",-87.9992291,41.6571572
"165","WALGREEN DRUG STORE","7350 BARRINGTON RD","HANOVER PARK","60133-3301","OTHER","7350 BARRINGTON RD HANOVER PARK, IL 60133-3301",-88.1455316,42.0051734
"166","WALGREEN DRUG STORE","100 LAKE ST","MAYWOOD","60153-1685","OTHER","100 LAKE ST MAYWOOD, IL 60153-1685",-87.8349612,41.8884716
"167","WALGREEN DRUG STORE","235 E PALATINE RD","ARLINGTON HEIGHTS","60004-3936","OTHER","235 E PALATINE RD ARLINGTON HEIGHTS, IL 60004-3936",-87.9798743,42.1078973
"168","WALGREEN DRUG STORE","1825 WILLOW RD","NORTHFIELD","60093-2925","OTHER","1825 WILLOW RD NORTHFIELD, IL 60093-2925",-87.7721054,42.1021335
"169","WALGREEN DRUG STORE","13 E IRVING PARK RD","STREAMWOOD","60107-2930","OTHER","13 E IRVING PARK RD STREAMWOOD, IL 60107-2930",-88.1818637,42.0126734
"170","WALGREEN DRUG STORE","375 E DUNDEE RD","PALATINE","60074-2812","OTHER","375 E DUNDEE RD PALATINE, IL 60074-2812",-88.0345693,42.1387092
"171","WALGREEN DRUG STORE","7200 ROOSEVELT RD","FOREST PARK","60130-2441","OTHER","7200 ROOSEVELT RD FOREST PARK, IL 60130-2441",-87.8050336,41.8646629
"172","WALGREEN DRUG STORE","4730 BUTTERFIELD RD","HILLSIDE","60162-1350","OTHER","4730 BUTTERFIELD RD HILLSIDE, IL 60162-1350",-87.9020118,41.8781281
"173","WALGREEN DRUG STORE","1 N ELMHURST RD","PROSPECT HEIGHTS","60070-1509","OTHER","1 N ELMHURST RD PROSPECT HEIGHTS, IL 60070-1509",-87.9361611,42.0957693
"174","WALGREEN DRUG STORE","12 N NORTHWEST HWY","PALATINE","60067-5323","OTHER","12 N NORTHWEST HWY PALATINE, IL 60067-5323",-88.0347038,42.1107768
"175","WALGREEN DRUG STORE","9301 WAUKEGAN RD","MORTON GROVE","60053-1313","OTHER","9301 WAUKEGAN RD MORTON GROVE, IL 60053-1313",-87.7990145,42.0505855
"176","WALGREEN DRUG STORE","15 S ORCHARD DR","PARK FOREST","60466-2096","OTHER","15 S ORCHARD DR PARK FOREST, IL 60466-2096",-87.6833068,41.4842007
"177","WALGREEN DRUG STORE","901 W TOUHY AVE","PARK RIDGE","60068-3230","OTHER","901 W TOUHY AVE PARK RIDGE, IL 60068-3230",-87.8363278,42.0107737
"178","WALGREEN DRUG STORE","3301 GLENVIEW RD","GLENVIEW","60025-2545","OTHER","3301 GLENVIEW RD GLENVIEW, IL 60025-2545",-87.8404708,42.0726927
"179","WALGREEN DRUG STORE","10345 W ROOSEVELT RD","WESTCHESTER","60154-2520","OTHER","10345 W ROOSEVELT RD WESTCHESTER, IL 60154-2520",-87.881747,41.8627245
"180","WALGREEN DRUG STORE","16675 OAK PARK AVE","TINLEY PARK","60477-1754","OTHER","16675 OAK PARK AVE TINLEY PARK, IL 60477-1754",-87.783635,41.588392
"181","WALGREEN DRUG STORE","9800 IRVING PARK RD","SCHILLER PARK","60176-1448","OTHER","9800 IRVING PARK RD SCHILLER PARK, IL 60176-1448",-87.8716232,41.9560073
"182","WALGREEN DRUG STORE","10 N MILWAUKEE AVE","WHEELING","60090-3012","OTHER","10 N MILWAUKEE AVE WHEELING, IL 60090-3012",-87.9089647,42.1402346
"183","WALGREEN DRUG STORE","13501 CICERO AVE","CRESTWOOD","60445-1934","OTHER","13501 CICERO AVE CRESTWOOD, IL 60445-1934",-87.7371915,41.6468625
"184","WALGREEN DRUG STORE","6800 OGDEN AVE","BERWYN","60402-3643","OTHER","6800 OGDEN AVE BERWYN, IL 60402-3643",-87.7934711,41.8266158
"185","WALGREEN DRUG STORE","5525 159TH ST","OAK FOREST","60452-3223","OTHER","5525 159TH ST OAK FOREST, IL 60452-3223",-87.754575,41.6023283
"186","WALGREEN DRUG STORE","1701 E KENSINGTON RD","MOUNT PROSPECT","60056-1922","OTHER","1701 E KENSINGTON RD MOUNT PROSPECT, IL 60056-1922",-87.9065864,42.0800948
"187","WALGREEN DRUG STORE","3564 RIDGE RD","LANSING","60438-3315","OTHER","3564 RIDGE RD LANSING, IL 60438-3315",-87.5299262,41.564837
"188","WALGREEN DRUG STORE","1600 W ROOSEVELT RD","BROADVIEW","60155-4024","OTHER","1600 W ROOSEVELT RD BROADVIEW, IL 60155-4024",-87.85227,41.8638532
"189","WALGREEN DRUG STORE","3145 W 147TH ST","POSEN","60469-1438","OTHER","3145 W 147TH ST POSEN, IL 60469-1438",-87.6975925,41.6253992
"190","WALGREEN DRUG STORE","5600 W TOUHY AVE","NILES","60714-4001","OTHER","5600 W TOUHY AVE NILES, IL 60714-4001",-87.7681065,42.0125499
"191","WALGREEN DRUG STORE","650 DIXIE HWY","CHICAGO HEIGHTS","60411-2143","OTHER","650 DIXIE HWY CHICAGO HEIGHTS, IL 60411-2143",-87.6498478,41.5195961
"192","WALGREEN DRUG STORE","5730 DEMPSTER ST","MORTON GROVE","60053-3042","OTHER","5730 DEMPSTER ST MORTON GROVE, IL 60053-3042",-87.7707217,42.0412208
"193","WALGREEN DRUG STORE","4700 GILBERT AVE","WESTERN SPRINGS","60558-1662","OTHER","4700 GILBERT AVE WESTERN SPRINGS, IL 60558-1662",-87.8904291,41.803648
"194","WALGREEN DRUG STORE","8001 N MILWAUKEE AVE","NILES","60714-2801","OTHER","8001 N MILWAUKEE AVE NILES, IL 60714-2801",-87.8137515,42.0265815
"195","WALGREEN DRUG STORE","1550 W ALGONQUIN RD","HOFFMAN ESTATES","60192-1575","OTHER","1550 W ALGONQUIN RD HOFFMAN ESTATES, IL 60192-1575",-88.1175355,42.0911554
"196","WALGREEN DRUG STORE","3 E GOLF RD","ARLINGTON HEIGHTS","60005-4001","OTHER","3 E GOLF RD ARLINGTON HEIGHTS, IL 60005-4001",-87.9813281,42.0508262
"197","WALGREEN DRUG STORE","1199 W DUNDEE RD","WHEELING","60090-3909","OTHER","1199 W DUNDEE RD WHEELING, IL 60090-3909",-87.945964,42.1382705
"198","WALGREEN DRUG STORE","2 N LA GRANGE RD","LA GRANGE","60525-2001","OTHER","2 N LA GRANGE RD LA GRANGE, IL 60525-2001",-87.8700891,41.8167236
"199","WALGREEN DRUG STORE","1403 WAUKEGAN RD","GLENVIEW","60025-2120","OTHER","1403 WAUKEGAN RD GLENVIEW, IL 60025-2120",-87.797209,42.0806224
"200","WALGREEN DRUG STORE","17 W GOLF RD","DES PLAINES","60016-2410","OTHER","17 W GOLF RD DES PLAINES, IL 60016-2410",-87.9219125,42.0480686
"201","WALGREEN DRUG STORE","4740 W 95TH ST","OAK LAWN","60453-2530","OTHER","4740 W 95TH ST OAK LAWN, IL 60453-2530",-87.7401236,41.7207084
"202","WALGREEN DRUG STORE","641 MEACHAM RD","ELK GROVE VILLAGE","60007-3047","OTHER","641 MEACHAM RD ELK GROVE VILLAGE, IL 60007-3047",-88.045249,42.0061457
"203","WALGREEN DRUG STORE","6430 W 111TH ST","WORTH","60482-1636","OTHER","6430 W 111TH ST WORTH, IL 60482-1636",-87.7796713,41.6906547
"204","WALGREEN DRUG STORE","11053 SOUTHWEST HWY","PALOS HILLS","60465-2321","OTHER","11053 SOUTHWEST HWY PALOS HILLS, IL 60465-2321",-87.8088359,41.6901264
"205","WALGREEN DRUG STORE","2151 S WOLF RD","HILLSIDE","60162-2107","OTHER","2151 S WOLF RD HILLSIDE, IL 60162-2107",-87.9007611,41.8486424
"206","WALGREEN DRUG STORE","2690 GOLF RD","GLENVIEW","60025-4744","OTHER","2690 GOLF RD GLENVIEW, IL 60025-4744",-87.8249633,42.0558631
"207","WALGREEN DRUG STORE","1150 E SIBLEY BLVD","DOLTON","60419-2828","OTHER","1150 E SIBLEY BLVD DOLTON, IL 60419-2828",-87.5887777,41.6231365
"208","WALGREEN DRUG STORE","13023 S LA GRANGE RD","PALOS PARK","60464-1718","OTHER","13023 S LA GRANGE RD PALOS PARK, IL 60464-1718",-87.8532106,41.6537528
"209","WALGREEN DRUG STORE","7878 S HARLEM AVE","BRIDGEVIEW","60455-1532","OTHER","7878 S HARLEM AVE BRIDGEVIEW, IL 60455-1532",-87.8005396,41.7486094
"210","WALGREEN DRUG STORE","17955 WOLF RD","ORLAND PARK","60467-9427","OTHER","17955 WOLF RD ORLAND PARK, IL 60467-9427",-87.8897216,41.563089
"211","WALGREEN DRUG STORE","9595 GRAND AVE","FRANKLIN PARK","60131-3305","OTHER","9595 GRAND AVE FRANKLIN PARK, IL 60131-3305",-87.8642591,41.9290713
"212","WALGREEN DRUG STORE","14680 S LA GRANGE RD","ORLAND PARK","60462-2510","OTHER","14680 S LA GRANGE RD ORLAND PARK, IL 60462-2510",-87.8545918,41.6237132
"213","WALGREEN DRUG STORE","21 RAND RD","DES PLAINES","60016-1005","OTHER","21 RAND RD DES PLAINES, IL 60016-1005",-87.9205334,42.0656664
"214","WALGREEN DRUG STORE","8701 S CICERO AVE","HOMETOWN","60456-1018","OTHER","8701 S CICERO AVE HOMETOWN, IL 60456-1018",-87.7404849,41.7339477
"215","WALGREEN DRUG STORE","1000 N ROSELLE RD","HOFFMAN ESTATES","60169-4919","OTHER","1000 N ROSELLE RD HOFFMAN ESTATES, IL 60169-4919",-88.0803815,42.0460261
"216","WALGREEN DRUG STORE","1378 MINER ST","DES PLAINES","60016-3372","OTHER","1378 MINER ST DES PLAINES, IL 60016-3372",-87.8900283,42.0428503
"217","WALGREEN DRUG STORE","3200 VOLLMER RD","OLYMPIA FIELDS","60461-1122","OTHER","3200 VOLLMER RD OLYMPIA FIELDS, IL 60461-1122",-87.6945509,41.5272097
"218","WALGREEN DRUG STORE","1461 W SCHAUMBURG RD","SCHAUMBURG","60194-4051","OTHER","1461 W SCHAUMBURG RD SCHAUMBURG, IL 60194-4051",-88.1171261,42.025406
"219","WALGREEN DRUG STORE","805 W EUCLID AVE","PALATINE","60067-7301","OTHER","805 W EUCLID AVE PALATINE, IL 60067-7301",-88.0629714,42.0860767
"220","WALGREEN DRUG STORE","8361 BELMONT AVE","RIVER GROVE","60171-1001","OTHER","8361 BELMONT AVE RIVER GROVE, IL 60171-1001",-87.8354046,41.9353501
"221","WALGREEN DRUG STORE","8715 S HARLEM AVE","BRIDGEVIEW","60455-1905","OTHER","8715 S HARLEM AVE BRIDGEVIEW, IL 60455-1905",-87.7974665,41.7328467
"222","WALGREEN DRUG STORE","1000 E NORTHWEST HWY","ARLINGTON HEIGHTS","60004-6235","OTHER","1000 E NORTHWEST HWY ARLINGTON HEIGHTS, IL 60004-6235",-87.9713034,42.0796309
"223","WALGREEN DRUG STORE","18300 GOVERNORS HWY","HOMEWOOD","60430-2910","OTHER","18300 GOVERNORS HWY HOMEWOOD, IL 60430-2910",-87.6826906,41.5567762
"224","WALGREEN DRUG STORE","8400 171ST ST","TINLEY PARK","60487-2287","OTHER","8400 171ST ST TINLEY PARK, IL 60487-2287",-87.8234276,41.5805735
"225","WALGREEN DRUG STORE","12659 S RIDGELAND AVE","PALOS HEIGHTS","60463-1871","OTHER","12659 S RIDGELAND AVE PALOS HEIGHTS, IL 60463-1871",-87.7770251,41.6618085
"226","WALGREEN DRUG STORE","6798 N LINCOLN AVE","LINCOLNWOOD","60712-3529","OTHER","6798 N LINCOLN AVE LINCOLNWOOD, IL 60712-3529",-87.730006,42.0039323
"227","WALGREEN DRUG STORE","770 E SCHAUMBURG RD","SCHAUMBURG","60194-3508","OTHER","770 E SCHAUMBURG RD SCHAUMBURG, IL 60194-3508",-88.0614439,42.0286973
"228","WALGREEN DRUG STORE","390 E 162ND ST","SOUTH HOLLAND","60473-2141","OTHER","390 E 162ND ST SOUTH HOLLAND, IL 60473-2141",-87.6079152,41.6012504
"229","AMITA SAINT FRANCIS HOSPITAL","","","","OTHER"," , IL ",-89.3985283,40.6331249
"230","CHICAGO READ MENTAL HLTH CTR","","","","OTHER"," , IL ",-89.3985283,40.6331249
"231","CIMPAR OAK PARK","","","","OTHER"," , IL ",-89.3985283,40.6331249
"232","EVANSTON HEALTH DEPARTMENT","","","","OTHER"," , IL ",-89.3985283,40.6331249
"233","ISP- MCCORMICK PLACE","","","","OTHER"," , IL ",-89.3985283,40.6331249
"234","OSCO PHARMACY","","","","OTHER"," , IL ",-89.3985283,40.6331249
"235","LAKE HEALTH CENTER","","","","OTHER"," , IL ",-89.3985283,40.6331249
"236","LAKE HEALTH CENTER","","","","OTHER"," , IL ",-89.3985283,40.6331249
"237","RUSH UNIV MEDICAL CENTER (ROPH O3C - MED","","","","OTHER"," , IL ",-89.3985283,40.6331249
"238","SKOKIE HEALTH DEPARTMENT","","","","OTHER"," , IL ",-89.3985283,40.6331249
"239","STICKNEY PUBLIC HEALTH DISTRICT","","","","OTHER"," , IL ",-89.3985283,40.6331249
"240","SUMMIT HEALTH CENTER","","","","OTHER"," , IL ",-89.3985283,40.6331249
"241","VILLAGE OF OAK PARK PUBLIC HEALTH","","","","OTHER"," , IL ",-89.3985283,40.6331249
"242","ALEXIAN BROTHERS BEHAVIORAL HEALTH HOSPI","1650 MOON LAKE BLVD","Hoffman Estates","60169","OTHER","1650 MOON LAKE BLVD Hoffman Estates, IL 60169",-88.1372978,42.0540731
"243","EVANSTON HOSPITAL","2650 RIDGE AVE","Evanston","60201","OTHER","2650 RIDGE AVE Evanston, IL 60201",-87.6846162,42.0654141
"244","MARIANO PHARMACY 531","3358 W TOUHY AVE","Skokie","60076","OTHER","3358 W TOUHY AVE Skokie, IL 60076",-87.7143368,42.0126633
"245","OSCO PHARMACY","5610 159TH ST.","Oak Forest","60452","OTHER","5610 159TH ST. Oak Forest, IL 60452",-87.7569294,41.6030336
"246","STREAMWOOD COMMUNITY HEALTH CENTER","135 IRVING PARK ROAD","Streamwood","60107","OTHER","135 IRVING PARK ROAD Streamwood, IL 60107",-88.179291,42.0124524
"247","V12 578 HINES, IL","5000 S 5 AVE","Hines","60141","OTHER","5000 S 5 AVE Hines, IL 60141",-87.8407386,41.8607002
"248","VA CMOP 765 - GREAT LAKES (HINES)","5TH AVENUE AND ROOSEVELT","Hines","60141","OTHER","5TH AVENUE AND ROOSEVELT Hines, IL 60141",-87.8383056,41.86438
"249","WALGREEN DRUG STORE","2040 ARMY TRAIL RD","Hanover Park","60133","OTHER","2040 ARMY TRAIL RD Hanover Park, IL 60133",-88.1544879,41.9414072
"250","WALGREEN DRUG STORE","2871 PFINGSTEN RD","Glenview","60026","OTHER","2871 PFINGSTEN RD Glenview, IL 60026",-87.8484528,42.1072923
"251","WALGREEN DRUG STORE","2100 GREEN BAY RD","Evanston","60201","OTHER","2100 GREEN BAY RD Evanston, IL 60201",-87.6925122,42.0559577
"252","WALGREEN DRUG STORE","4850 OAKTON ST","Skokie","60077","OTHER","4850 OAKTON ST Skokie, IL 60077",-87.7493452,42.026578
"253","WALGREEN DRUG STORE","9000 N GREENWOOD AVE","Niles","60714","OTHER","9000 N GREENWOOD AVE Niles, IL 60714",-87.8413919,42.0441135
"254","WALGREEN DRUG STORE","900 DODGE AVE","Evanston","60202","OTHER","900 DODGE AVE Evanston, IL 60202",-87.6997939,42.0343412
"255","WALGREEN DRUG STORE","9150 SKOKIE BLVD","Skokie","60077","OTHER","9150 SKOKIE BLVD Skokie, IL 60077",-87.7478082,42.0477494
"256","WALGREEN DRUG STORE","6412 ROOSEVELT RD","Oak Park","60304","OTHER","6412 ROOSEVELT RD Oak Park, IL 60304",-87.7848646,41.8655568
"257","WALGREEN DRUG STORE","5500 COUNTY FARM RD","Hanover Park","60133","OTHER","5500 COUNTY FARM RD Hanover Park, IL 60133",-88.15102,41.9732193
"258","WALGREEN DRUG STORE","600 VILLA ST","Elgin","60120","OTHER","600 VILLA ST Elgin, IL 60120",-88.2676632,42.0310588
"259","WALGREEN DRUG STORE","811 MADISON ST","Oak Park","60302","OTHER","811 MADISON ST Oak Park, IL 60302",-87.7945468,41.8795471
"260","WALGREEN DRUG STORE","3945 DEMPSTER ST","Skokie","60076","OTHER","3945 DEMPSTER ST Skokie, IL 60076",-87.7269963,42.0404482
"261","WALGREEN DRUG STORE","5555 W 79TH ST","Burbank","60459","OTHER","5555 W 79TH ST Burbank, IL 60459",-87.7601169,41.748318
"262","WALGREEN DRUG STORE","635 CHICAGO AVE","Evanston","60202","OTHER","635 CHICAGO AVE Evanston, IL 60202",-87.6779538,42.0301356
"263","WALGREEN DRUG STORE","4009 OLD ORCHARD RD","Skokie","60076","OTHER","4009 OLD ORCHARD RD Skokie, IL 60076",-87.7279587,42.062182
"264","WALGREEN DRUG STORE","6001 W 95TH ST","Oak Lawn","60453","OTHER","6001 W 95TH ST Oak Lawn, IL 60453",-87.7706267,41.7190233
"265","WALGREEN DRUG STORE","925 GREEN BAY RD","Winnetka","60093","OTHER","925 GREEN BAY RD Winnetka, IL 60093",-87.743038,42.1168552
"266","WALGREEN DRUG STORE","15940 KEDZIE AVE","Markham","60428","OTHER","15940 KEDZIE AVE Markham, IL 60428",-87.6949744,41.5995549
"267","AHMG - RIVERSIDE","7503 W CERMAK RD","RIVERSIDE","60546-1405","OTHER","7503 W CERMAK RD RIVERSIDE, IL 60546-1405",-87.8123863,41.8501667
"268","AHMG - WESTCHESTER","2434 WOLF RD","WESTCHESTER","60154-5634","OTHER","2434 WOLF RD WESTCHESTER, IL 60154-5634",-87.9026256,41.8437124
"269","AMITA - HOLY FAMILY MEDICAL CENTER","100 N RIVER RD","DES PLAINES","60016-1209","OTHER","100 N RIVER RD DES PLAINES, IL 60016-1209",-87.8894309,42.0553579
"270","CHICAGO BEHAVIORAL HOSPITAL","555 WILSON LN","DES PLAINES","60016-4729","OTHER","555 WILSON LN DES PLAINES, IL 60016-4729",-87.8791396,42.0428048
"271","CICERO MEDICAL CLINICA SAN LAZARO","5712 W 35TH ST","CICERO","60804-4222","OTHER","5712 W 35TH ST CICERO, IL 60804-4222",-87.766551,41.8292601
"272","DEPARTMENT OF HEALTH AND HUMAN SERVICES","1900 HASSELL RD","HOFFMAN ESTATES","60169-6308","OTHER","1900 HASSELL RD HOFFMAN ESTATES, IL 60169-6308",-88.1250205,42.0639996
"273","GENOA HEALTHCARE PHARMACY - CHICAGO HEIGHTS","450 W LINCOLN HIGHWAY 14 ST STE P","CHICAGO HEIGHTS","60411-","OTHER","450 W LINCOLN HIGHWAY 14 ST STE P CHICAGO HEIGHTS, IL 60411-",-87.6623159,41.5057209
"274","KINDRED HOSPITAL - NORTHLAKE","345 E NORTH AVE","NORTHLAKE","60164-2628","OTHER","345 E NORTH AVE NORTHLAKE, IL 60164-2628",-87.8916383,41.906878
"275","METRO INFECTIOUS DISEASE, CRESTWOOD","13755 CICERO AVE","CRESTWOOD","60418-1824","OTHER","13755 CICERO AVE CRESTWOOD, IL 60418-1824",-87.7372416,41.6424668
"276","NORTH SHORE MEDICAL - NORTHBROOK","501 SKOKIE BLVD","NORTHBROOK","60062-2802","OTHER","501 SKOKIE BLVD NORTHBROOK, IL 60062-2802",-87.7934329,42.1429936
"277","NW ONCOLOGY & HEMATOLOGY, ELK GROVE","800 BIESTERFIELD RD STE 210","ELK GROVE VILLAGE","60007-3363","OTHER","800 BIESTERFIELD RD STE 210 ELK GROVE VILLAGE, IL 60007-3363",-88.0164398,42.0046582
"278","VILLAGE OF ARLINGTON HEIGHTS","33 S ARLINGTON HEIGHTS RD","ARLINGTON HEIGHTS","60005-1403","OTHER","33 S ARLINGTON HEIGHTS RD ARLINGTON HEIGHTS, IL 60005-1403",-87.9798743,42.0816358
"279","VNA HEALTHCARE - ELGIN VILLA","801 VILLA ST","ELGIN","60120-8001","OTHER","801 VILLA ST ELGIN, IL 60120-8001",-88.2595783,42.0270667
"280","ABDALLAH KARAM MD","657 E GOLF RD","ARLINGTON HEIGHTS","60005-4071","OTHER","657 E GOLF RD ARLINGTON HEIGHTS, IL 60005-4071",-87.9733698,42.0509956
"281","ABMG - IMMEDIATE CARE - ELK GROVE VILLAGE","126 BIESTERFIELD RD","ELK GROVE VILLAGE","60007-3657","OTHER","126 BIESTERFIELD RD ELK GROVE VILLAGE, IL 60007-3657",-88.0080622,42.0051604
"282","ABMG - MAIN OFFICE","3040 W SALT CREEK LN","ARLINGTON HEIGHTS","60005-1069","OTHER","3040 W SALT CREEK LN ARLINGTON HEIGHTS, IL 60005-1069",-88.0190342,42.0909685
"283","ABMG - OLD TOWN","25 E SCHAUMBURG RD","SCHAUMBURG","60194-3550","OTHER","25 E SCHAUMBURG RD SCHAUMBURG, IL 60194-3550",-88.0780821,42.0270348
"284","ABMG - POPLAR CREEK FAMILY PRACTICE","1555 BARRINGTON RD BLDG 1","HOFFMAN ESTATES","60169-1020","OTHER","1555 BARRINGTON RD BLDG 1 HOFFMAN ESTATES, IL 60169-1020",-88.141472,42.053757
"285","ACCESS DES PLAINES VALLEY HEALTH CENTER","7450 W 63RD ST","SUMMIT ARGO","60501-1816","OTHER","7450 W 63RD ST SUMMIT ARGO, IL 60501-1816",-87.8078181,41.7773262
"286","ACMG - DES PLAINES","77 RAND RD # POD # 1","DES PLAINES","60016-1005","OTHER","77 RAND RD # POD # 1 DES PLAINES, IL 60016-1005",NA,NA
"287","ADMG OAK LAWN","9555 S 52ND AVE","OAK LAWN","60453","OTHER","9555 S 52ND AVE OAK LAWN, IL 60453",-87.7503875,41.7182768
"288","ADULT MEDICINE PHYSICIANS -COUNTRYSIDE","6438 JOLIET RD","COUNTRYSIDE","60525","OTHER","6438 JOLIET RD COUNTRYSIDE, IL 60525",-87.8835491,41.7709526
"289","ADVENTIST LA GRANGE MEMORIAL HOSPITAL","5101 WILLOW SPRINGS RD","LA GRANGE","60525-2600","OTHER","5101 WILLOW SPRINGS RD LA GRANGE, IL 60525-2600",-87.8863882,41.7967451
"290","ADVOCATE GLENBROOK PEDIATRICS","2551 COMPASS RD","GLENVIEW","60026-8045","OTHER","2551 COMPASS RD GLENVIEW, IL 60026-8045",-87.8201257,42.0981876
"291","ADVOCATE MED GRP PEDIATRIC AMBULATORY CARE","4440 W 95TH ST STE 1200 H","OAK LAWN","60453","OTHER","4440 W 95TH ST STE 1200 H OAK LAWN, IL 60453",-87.7325833,41.7216154
"292","AHMG - BURRIDGE POS 11","901 MCCLINTOCK DR STE 110","BURR RIDGE","60527-0874","OTHER","901 MCCLINTOCK DR STE 110 BURR RIDGE, IL 60527-0874",-87.907829,41.7538649
"293","AHMG - LAGRANGE#2 POS 11","5201 WILLOW SPRINGS RD STE 160","LA GRANGE HIGHLANDS","60525-6558","OTHER","5201 WILLOW SPRINGS RD STE 160 LA GRANGE HIGHLANDS, IL 60525-6558",-87.8867494,41.7956411
"294","AHMG - OB/GYN LAGRANGE POS 11","5201 WILLOW SPRINGS RD STE 120","LA GRANGE HIGHLANDS","60525-6540","OTHER","5201 WILLOW SPRINGS RD STE 120 LA GRANGE HIGHLANDS, IL 60525-6540",-87.8868033,41.795641
"295","ALPHA MED PHYSICIANS GROUP","17333 LA GRANGE RD","TINLEY PARK","60487-7502","OTHER","17333 LA GRANGE RD TINLEY PARK, IL 60487-7502",-87.8508318,41.5747713
"296","AMG-NESSET FAMILY MEDICINE","1775 BALLARD RD","PARK RIDGE","60068-1005","OTHER","1775 BALLARD RD PARK RIDGE, IL 60068-1005",-87.8503272,42.0424357
"297","AMG - OLYMPIA FIELDS","4001 VOLLMER RD","OLYMPIA FIELDS","60461-3168","OTHER","4001 VOLLMER RD OLYMPIA FIELDS, IL 60461-3168",-87.7141059,41.5271305
"298","AMG BARRINGTON","1301 S BARRINGTON RD","BARRINGTON","60010-5276","OTHER","1301 S BARRINGTON RD BARRINGTON, IL 60010-5276",-88.1353762,42.1346037
"299","AMG GLENVIEW ON WAUKEGAN","1412 WAUKEGAN RD","GLENVIEW","60025-2121","OTHER","1412 WAUKEGAN RD GLENVIEW, IL 60025-2121",-87.7992692,42.0810107
"300","AMG ORLAND PARK","9550 W 167TH ST # MAIN FL S E FAMILY PRACTICE","ORLAND PARK","60467-","OTHER","9550 W 167TH ST # MAIN FL S E FAMILY PRACTICE ORLAND PARK, IL 60467-",NA,NA
"301","AMG SOUTH HOLLAND","100 W 162ND ST","SOUTH HOLLAND","60473-2003","OTHER","100 W 162ND ST SOUTH HOLLAND, IL 60473-2003",-87.6205662,41.6016679
"302","AMG YACKTMAN PEDIATRICS","1675 DEMPSTER ST FL 1","PARK RIDGE","60068-1110","OTHER","1675 DEMPSTER ST FL 1 PARK RIDGE, IL 60068-1110",-87.8461464,42.0390241
"303","BELOVED COMMUNITY WELLNESS CENTER  IN ROBBINS","3518 W 139TH ST","ROBBINS","60472-2002","OTHER","3518 W 139TH ST ROBBINS, IL 60472-2002",-87.7068315,41.6406945
"304","CARDINAL BERNARDIN CANCER CTR","CC SURGICAL ONCOLOGY 2160 1 AVE","MAYWOOD","60153-","OTHER","CC SURGICAL ONCOLOGY 2160 1 AVE MAYWOOD, IL 60153-",-87.8351046,41.8598585
"305","CENTER FOR INTERNAL MEDICINE","4609 W 103RD ST","OAK LAWN","60453-4718","OTHER","4609 W 103RD ST OAK LAWN, IL 60453-4718",-87.7358452,41.7053271
"306","COTTRELL MEDICAL GROUP","2 W TALCOTT RD","PARK RIDGE","60068-5558","OTHER","2 W TALCOTT RD PARK RIDGE, IL 60068-5558",-87.8225061,41.9937934
"307","COVENANT MEDICAL GROUP LLC","2501 COMPASS RD STE 100","GLENVIEW","60026-8000","OTHER","2501 COMPASS RD STE 100 GLENVIEW, IL 60026-8000",-87.8193076,42.0981076
"308","CVS HEALTH - PHARMACY # 05213","8911 OGDEN AVE","BROOKFIELD","60513-2005","OTHER","8911 OGDEN AVE BROOKFIELD, IL 60513-2005",-87.844769,41.8164081
"309","CVS HEALTH - PHARMACY # 06701","101 BARTLETT PLZ","BARTLETT","60103-4234","OTHER","101 BARTLETT PLZ BARTLETT, IL 60103-4234",-88.1839356,41.9879864
"310","CVS HEALTH - PHARMACY # 08734","1801 W GOLF RD","SCHAUMBURG","60194-1148","OTHER","1801 W GOLF RD SCHAUMBURG, IL 60194-1148",-88.1246773,42.0468719
"311","CVS HEALTH - PHARMACY # 08742","5524 W CERMAK RD","CICERO","60804-2217","OTHER","5524 W CERMAK RD CICERO, IL 60804-2217",-87.7625363,41.8513899
"312","CVS HEALTH - PHARMACY #10555","14290 S LA GRANGE RD","ORLAND PARK","60462-2023","OTHER","14290 S LA GRANGE RD ORLAND PARK, IL 60462-2023",-87.8545918,41.6308805
"313","DEDICATION HEALTH","710 OAK ST","WINNETKA","60093-2522","OTHER","710 OAK ST WINNETKA, IL 60093-2522",-87.7309265,42.1042799
"314","ELIZABETH BECERRA MD","2223 OAK PARK AVE","BERWYN","60402-4670","OTHER","2223 OAK PARK AVE BERWYN, IL 60402-4670",-87.7930678,41.8497919
"315","GOPAL MADHAV MD","3900 W 95TH ST","EVERGREEN PARK","60805-1901","OTHER","3900 W 95TH ST EVERGREEN PARK, IL 60805-1901",-87.7193704,41.7206549
"316","ICC - MT. PROSPECT","1060 S ELMHURST RD","MOUNT PROSPECT","60056-4240","OTHER","1060 S ELMHURST RD MOUNT PROSPECT, IL 60056-4240",-87.9422512,42.0449315
"317","ICC - SCHAUMBURG","361 W GOLF RD","SCHAUMBURG","60195-3607","OTHER","361 W GOLF RD SCHAUMBURG, IL 60195-3607",-88.0886641,42.047826
"318","ILLINOIS CANCER SPECIALISTS","1100 E WOODFIELD RD","SCHAUMBURG","60173-5124","OTHER","1100 E WOODFIELD RD SCHAUMBURG, IL 60173-5124",-88.0530416,42.0444847
"319","JEWEL-OSCO - 0063","763 E 162ND ST","SOUTH HOLLAND","60473-2331","OTHER","763 E 162ND ST SOUTH HOLLAND, IL 60473-2331",-87.5983474,41.5999605
"320","JEWEL-OSCO - 0157","4650 W 103RD ST","OAK LAWN","60453-4719","OTHER","4650 W 103RD ST OAK LAWN, IL 60453-4719",-87.7372361,41.7067245
"321","JEWEL-OSCO - 0607","9424 S PULASKI RD","OAK LAWN","60453-1935","OTHER","9424 S PULASKI RD OAK LAWN, IL 60453-1935",-87.7221072,41.7211296
"322","JEWEL-OSCO - 0659","3153 183RD ST","HOMEWOOD","60430-2806","OTHER","3153 183RD ST HOMEWOOD, IL 60430-2806",-87.6931648,41.5558941
"323","JEWEL-OSCO - 2160","9650 W 131ST ST","PALOS PARK","60464-1640","OTHER","9650 W 131ST ST PALOS PARK, IL 60464-1640",-87.8560892,41.6532588
"324","JEWEL-OSCO - 2265","507 E WOODLAWN AVE","LA GRANGE PARK","60526-1983","OTHER","507 E WOODLAWN AVE LA GRANGE PARK, IL 60526-1983",-87.8682403,41.8238477
"325","JEWEL-OSCO - 2363","5610 159TH ST","OAK FOREST","60452-3104","OTHER","5610 159TH ST OAK FOREST, IL 60452-3104",-87.7569294,41.6030336
"326","JEWEL-OSCO - 2519","2775 PFINGSTEN RD","GLENVIEW","60026-1198","OTHER","2775 PFINGSTEN RD GLENVIEW, IL 60026-1198",-87.8458103,42.1050165
"327","JEWEL-OSCO - 3053","12803 S HARLEM AVE","PALOS HEIGHTS","60463-2132","OTHER","12803 S HARLEM AVE PALOS HEIGHTS, IL 60463-2132",-87.7948434,41.6591133
"328","JEWEL-OSCO - 3165","17113 HARLEM AVE","TINLEY PARK","60477-3369","OTHER","17113 HARLEM AVE TINLEY PARK, IL 60477-3369",-87.7931867,41.5800277
"329","JEWEL-OSCO - 3167","3240 CHICAGO RD","SOUTH CHICAGO HEIGHTS","60411-5421","OTHER","3240 CHICAGO RD SOUTH CHICAGO HEIGHTS, IL 60411-5421",-87.638788,41.479212
"330","JEWEL-OSCO - 3192","17930 WOLF RD","ORLAND PARK","60467-5412","OTHER","17930 WOLF RD ORLAND PARK, IL 60467-5412",-87.8931718,41.563074
"331","JEWEL-OSCO - 3216","2503 W SCHAUMBURG RD","SCHAUMBURG","60194-3887","OTHER","2503 W SCHAUMBURG RD SCHAUMBURG, IL 60194-3887",-88.1432034,42.0247615
"332","JEWEL-OSCO - 3291","1038 SUMMIT ST","ELGIN","60120-4320","OTHER","1038 SUMMIT ST ELGIN, IL 60120-4320",-88.2534495,42.0478305
"333","JEWEL-OSCO - 3316","1071 N ROSELLE RD","HOFFMAN ESTATES","60169-4929","OTHER","1071 N ROSELLE RD HOFFMAN ESTATES, IL 60169-4929",-88.0794795,42.04744
"334","JEWEL-OSCO - 3422","122 N VAIL AVE","ARLINGTON HEIGHTS","60005-1432","OTHER","122 N VAIL AVE ARLINGTON HEIGHTS, IL 60005-1432",-87.9854597,42.0842831
"335","JEWEL-OSCO - 3426","2502 WAUKEGAN RD","GLENVIEW","60025-1774","OTHER","2502 WAUKEGAN RD GLENVIEW, IL 60025-1774",-87.7986297,42.0999207
"336","JEWEL-OSCO - 3445","33 S PLUM GROVE RD","PALATINE","60067-6242","OTHER","33 S PLUM GROVE RD PALATINE, IL 60067-6242",-88.042939,42.1092773
"337","JEWEL-OSCO - 3446","7900 N MILWAUKEE AVE","NILES","60714-3159","OTHER","7900 N MILWAUKEE AVE NILES, IL 60714-3159",-87.8146345,42.0246301
"338","JEWEL-OSCO - 3469","16 S WAUKEGAN RD","DEERFIELD","60015-5216","OTHER","16 S WAUKEGAN RD DEERFIELD, IL 60015-5216",-87.8373635,42.1517993
"339","JEWEL-OSCO - 3473","811 ELMHURST RD","DES PLAINES","60016-5605","OTHER","811 ELMHURST RD DES PLAINES, IL 60016-5605",-87.9388367,42.0371656
"340","JEWEL-OSCO - 3478","442 E RAND RD","ARLINGTON HEIGHTS","60004-3101","OTHER","442 E RAND RD ARLINGTON HEIGHTS, IL 60004-3101",-87.9778062,42.1110604
"341","JEWEL-OSCO - 3481","481 BUSSE HWY","PARK RIDGE","60068-3252","OTHER","481 BUSSE HWY PARK RIDGE, IL 60068-3252",-87.8394729,42.0156978
"342","JEWEL-OSCO - 3484","5665 W TOUHY AVE","NILES","60714-4019","OTHER","5665 W TOUHY AVE NILES, IL 60714-4019",-87.7685118,42.0118017
"343","JEWEL-OSCO - 3491","3004 KIRCHOFF RD","ROLLING MEADOWS","60008-1818","OTHER","3004 KIRCHOFF RD ROLLING MEADOWS, IL 60008-1818",-88.0173815,42.0778606
"344","JEWEL-OSCO - 4057","10203 GRAND AVE","FRANKLIN PARK","60131-3140","OTHER","10203 GRAND AVE FRANKLIN PARK, IL 60131-3140",-87.8803998,41.9294431
"345","JEWEL-OSCO - 4268","217 E IRVING PARK RD","STREAMWOOD","60107-2948","OTHER","217 E IRVING PARK RD STREAMWOOD, IL 60107-2948",-88.1779137,42.011588
"346","JORGE BALANDRIN MD","4700 W 95TH ST","OAK LAWN","60453-2574","OTHER","4700 W 95TH ST OAK LAWN, IL 60453-2574",-87.7380763,41.7203825
"347","KOMPREHENSIVE PRIMARY CARE SPORTS MEDICINE","18350 KEDZIE AVE","HOMEWOOD","60430-2758","OTHER","18350 KEDZIE AVE HOMEWOOD, IL 60430-2758",-87.6945509,41.5556098
"348","LAWN MEDICAL CENTER SC","4301 W 95TH ST","OAK LAWN","60453-2670","OTHER","4301 W 95TH ST OAK LAWN, IL 60453-2670",-87.7288099,41.7200633
"349","LISA KIM MEDICAL ASSOCIATES","2604 DEMPSTER ST","PARK RIDGE","60068-8427","OTHER","2604 DEMPSTER ST PARK RIDGE, IL 60068-8427",-87.8588886,42.0401107
"350","LOC PEDIATRICS","2160 S 1ST AVE BLDG 150 RM 1700 # ATTN ERIKA","MAYWOOD","60153-3328","OTHER","2160 S 1ST AVE BLDG 150 RM 1700 # ATTN ERIKA MAYWOOD, IL 60153-3328",NA,NA
"351","LORETTO HOSPITAL PRIMARY CARE","6905 CERMAK RD","BERWYN","60402-2174","OTHER","6905 CERMAK RD BERWYN, IL 60402-2174",-87.7961219,41.8502965
"352","LOYOLA CENTER FOR HEALTH AT ELMWOOD PARK","7255 W GRAND AVE","ELMWOOD PARK","60707-2028","OTHER","7255 W GRAND AVE ELMWOOD PARK, IL 60707-2028",-87.808728,41.9241981
"353","LOYOLA CENTER FOR HEALTH AT GOTTLIEB","675 W NORTH AVE STE 416","MELROSE PARK","60160-1626","OTHER","675 W NORTH AVE STE 416 MELROSE PARK, IL 60160-1626",-87.8423469,41.9103077
"354","LOYOLA CENTER FOR HEALTH AT PARK RIDGE","1030 HIGGINS RD","PARK RIDGE","60068-5740","OTHER","1030 HIGGINS RD PARK RIDGE, IL 60068-5740",-87.8390902,41.9870378
"355","LOYOLA CENTER FOR HEALTH HICKORY HILLS","9608 S ROBERTS RD","HICKORY HILLS","60457-2238","OTHER","9608 S ROBERTS RD HICKORY HILLS, IL 60457-2238",-87.8204353,41.7159944
"356","LOYOLA CTR FOR HEALTH/ ORLAND PARK","16621 107TH ST","ORLAND PARK","60467-9016","OTHER","16621 107TH ST ORLAND PARK, IL 60467-9016",-87.8781655,41.5880133
"357","LOYOLA FAMILY MEDICINE CLINIC","1211 W ROOSEVELT RD","MAYWOOD","60153-4046","OTHER","1211 W ROOSEVELT RD MAYWOOD, IL 60153-4046",-87.8476354,41.8648814
"358","MACNEAL FAMILY PRACTICE CENTER","3231 EUCLID AVE FL 5","BERWYN","60402-4603","OTHER","3231 EUCLID AVE FL 5 BERWYN, IL 60402-4603",-87.7912004,41.8329129
"359","MARIA LENTZOU MD","12050 S HARLEM AVE","PALOS HEIGHTS","60463-2803","OTHER","12050 S HARLEM AVE PALOS HEIGHTS, IL 60463-2803",-87.7971976,41.6719654
"360","METRO INFECTIOUS DIESEASE CONSULTANTS - BURR RIDGE","901 MCCLINTOCK DR STE 201","BURR RIDGE","60527-0872","OTHER","901 MCCLINTOCK DR STE 201 BURR RIDGE, IL 60527-0872",-87.9077227,41.7539269
"361","MIDTOWN PHYSICIANS SC","675 W NORTH AVE","MELROSE PARK","60160-1634","OTHER","675 W NORTH AVE MELROSE PARK, IL 60160-1634",-87.8423372,41.9103233
"362","MIDWEST CENTER FOR WOMEN'S HEALTHCARE- HOFFMAN","1721 MOON LAKE BLVD STE 100","HOFFMAN ESTATES","60169-5700","OTHER","1721 MOON LAKE BLVD STE 100 HOFFMAN ESTATES, IL 60169-5700",-88.1346178,42.054167
"363","MIDWEST CENTER FOR WOMEN'S HEALTHCARE NOGA - PARK RIDGE","350 S NORTHWEST HWY","PARK RIDGE","60068-4262","OTHER","350 S NORTHWEST HWY PARK RIDGE, IL 60068-4262",-87.8237477,42.0071463
"364","MIDWEST CENTER FOR WOMEN'S HEALTHCARE POG - PARK RIDGE","1875 DEMPSTER ST","PARK RIDGE","60068-1125","OTHER","1875 DEMPSTER ST PARK RIDGE, IL 60068-1125",-87.8481968,42.038703
"365","MIDWEST CENTER FOR WOMEN'S HLTHCARE","3633 W LAKE AVE STE 204","GLENVIEW","60026-5802","OTHER","3633 W LAKE AVE STE 204 GLENVIEW, IL 60026-5802",-87.8470763,42.0859649
"366","MIDWEST INTERNAL MEDICINE CLINIC INC","1555 N BARRINGTON RD STE 410 # DOCTORS BLD 1","HOFFMAN ESTATES","60169-","OTHER","1555 N BARRINGTON RD STE 410 # DOCTORS BLD 1 HOFFMAN ESTATES, IL 60169-",NA,NA
"367","NEW ALBERTSONS INC","3030 CULLERTON ST","FRANKLIN PARK","60131-2205","OTHER","3030 CULLERTON ST FRANKLIN PARK, IL 60131-2205",-87.8931718,41.9327801
"368","NORTH RIVERSIDE","1950 HARLEM AVE","N RIVERSIDE","60546-1470","OTHER","1950 HARLEM AVE N RIVERSIDE, IL 60546-1470",-87.804924,41.8532697
"369","NORTHWEST ONCOLOGY AND HEMATOLOGY","3701 ALGONQUIN RD","ROLLING MEADOWS","60008-3193","OTHER","3701 ALGONQUIN RD ROLLING MEADOWS, IL 60008-3193",-88.025876,42.0613765
"370","OAK MILL MEDICAL ASSOCIATES","7900 N MILWAUKEE AVE","NILES","60714-3165","OTHER","7900 N MILWAUKEE AVE NILES, IL 60714-3165",-87.8146345,42.0246301
"371","OAK STREET HEALTH ELGIN","820 SUMMIT ST STE B4","ELGIN","60120-4316","OTHER","820 SUMMIT ST STE B4 ELGIN, IL 60120-4316",-88.260107,42.047104
"372","OSF MEDICAL GROUP EVERGREEN PARK","2850 W 95TH ST","EVERGREEN PARK","60805-2735","OTHER","2850 W 95TH ST EVERGREEN PARK, IL 60805-2735",-87.6939348,41.7214911
"373","OSF MEDICAL GROUP OAK LAWN","6700 W 95TH ST","OAK LAWN","60453-2199","OTHER","6700 W 95TH ST OAK LAWN, IL 60453-2199",-87.7867873,41.7198921
"374","OSF MEDICAL GROUP OAK LAWN CENTRAL","5550 W 111TH ST","OAK LAWN","60453-5012","OTHER","5550 W 111TH ST OAK LAWN, IL 60453-5012",-87.7586122,41.6909897
"375","OSF MEDICAL GROUP PALOS HEIGHTS","12450 S HARLEM AVE","PALOS HEIGHTS","60463-1426","OTHER","12450 S HARLEM AVE PALOS HEIGHTS, IL 60463-1426",-87.7969579,41.6647828
"376","OSFMG EVERGREEN PARK 205","2850 W 95TH ST","EVERGREEN PARK","60805-2734","OTHER","2850 W 95TH ST EVERGREEN PARK, IL 60805-2734",-87.6939348,41.7214911
"377","PREMIERE GENERAL MEDICINE","7270 W COLLEGE DR","PALOS HEIGHTS","60463-1287","OTHER","7270 W COLLEGE DR PALOS HEIGHTS, IL 60463-1287",-87.7995793,41.6764476
"378","PRESENCE CENTER FOR HEALTH PARK RIDGE","205 S NORTHWEST HWY FL 2","PARK RIDGE","60068-5802","OTHER","205 S NORTHWEST HWY FL 2 PARK RIDGE, IL 60068-5802",-87.8253856,42.0090509
"379","PRIMARY CARE ASSOCIATES","6840 W WINDSOR AVE","BERWYN","60402-3441","OTHER","6840 W WINDSOR AVE BERWYN, IL 60402-3441",-87.7948158,41.8325015
"380","PRIME CARE PHYSICIANS","1355 REMINGTON RD STE H","SCHAUMBURG","60173-4818","OTHER","1355 REMINGTON RD STE H SCHAUMBURG, IL 60173-4818",-88.0475411,42.0524317
"381","REFUAH 311","6557 N LINCOLN AVE","LINCOLNWOOD","60712-3934","OTHER","6557 N LINCOLN AVE LINCOLNWOOD, IL 60712-3934",-87.7225392,42.00026
"382","RML SPECIALITY HOSPITAL","5601 S COUNTY LINE RD","HINSDALE","60521-4875","OTHER","5601 S COUNTY LINE RD HINSDALE, IL 60521-4875",-87.9153773,41.7861894
"383","RUHI ASKARI MD","3433 KIRCHOFF RD","ROLLING MEADOWS","60008-1842","OTHER","3433 KIRCHOFF RD ROLLING MEADOWS, IL 60008-1842",-88.0234299,42.0789536
"384","SKYPOINT MEDICAL CENTER - MAIN OFFICE","1102 S ROSELLE RD","SCHAUMBURG","60193-4072","OTHER","1102 S ROSELLE RD SCHAUMBURG, IL 60193-4072",-88.0818971,42.0078411
"385","SOUTH HOLLAND CHRISTIAN COMMUNITY HEALTH CENTER","901 E SIBLEY BLVD","SOUTH HOLLAND","60473-1166","OTHER","901 E SIBLEY BLVD SOUTH HOLLAND, IL 60473-1166",-87.5951477,41.622146
"386","SOUTHWEST MEDICAL CONSULTANTS, S.C.","10458 S PULASKI RD","OAK LAWN","60453-4933","OTHER","10458 S PULASKI RD OAK LAWN, IL 60453-4933",-87.7210713,41.7023911
"387","SUSAN RIFE FAMILY MEDICINE S.C.","10755 163RD PL","ORLAND PARK","60467-8861","OTHER","10755 163RD PL ORLAND PARK, IL 60467-8861",-87.8802642,41.5922927
"388","TIESENGA SURGICAL ASSOCIATES - ELMWOOD PARK OFC","1950 N HARLEM AVE","ELMWOOD PARK","60707-3717","OTHER","1950 N HARLEM AVE ELMWOOD PARK, IL 60707-3717",-87.8063395,41.9160118
"389","UNIVERSITY OF CHICAGO HOSPITALS ORLAND PARK","14290 S LA GRANGE RD","ORLAND PARK","60462-2023","OTHER","14290 S LA GRANGE RD ORLAND PARK, IL 60462-2023",-87.8545918,41.6308805
"390","VANGUARD MEDICAL GROUP - BERWYN","6425 CERMAK RD","BERWYN","60402-4602","OTHER","6425 CERMAK RD BERWYN, IL 60402-4602",-87.7851334,41.8503994
"391","WALGREEN CO. STORE # 10485","12854 S ASHLAND AVE","CALUMET PARK","60827-6308","OTHER","12854 S ASHLAND AVE CALUMET PARK, IL 60827-6308",-87.6613497,41.6589755
"392","WALGREEN CO. STORE # 11332","4101 N HARLEM AVE","NORRIDGE","60706-1211","OTHER","4101 N HARLEM AVE NORRIDGE, IL 60706-1211",-87.8066852,41.9546342
"393","WALGREEN CO. STORE # 15048","333 RIDGE RD","WILMETTE","60091-3217","OTHER","333 RIDGE RD WILMETTE, IL 60091-3217",-87.7233223,42.0712665
"394","WALGREEN CO. STORE # 16093","3040 S CICERO AVE","CICERO","60804-3638","OTHER","3040 S CICERO AVE CICERO, IL 60804-3638",-87.7443814,41.8375841
"395","WALGREEN CO. STORE # 1656","63 GREEN BAY RD","GLENCOE","60022-4416","OTHER","63 GREEN BAY RD GLENCOE, IL 60022-4416",-87.7451918,42.1195221
"396","WALGREEN CO. STORE # 3023","6201 W 95TH ST","OAK LAWN","60453-2701","OTHER","6201 W 95TH ST OAK LAWN, IL 60453-2701",-87.7753685,41.7190068
"397","WALGREEN CO. STORE # 3833","2828 N HARLEM AVE","ELMWOOD PARK","60707-1637","OTHER","2828 N HARLEM AVE ELMWOOD PARK, IL 60707-1637",-87.8069156,41.93179
"398","WALGREEN CO. STORE # 400","1600 N HARLEM AVE","ELMWOOD PARK","60707-4302","OTHER","1600 N HARLEM AVE ELMWOOD PARK, IL 60707-4302",-87.806143,41.90919
"399","WALGREEN CO. STORE # 4713","3148 W 159TH ST","MARKHAM","60428-4042","OTHER","3148 W 159TH ST MARKHAM, IL 60428-4042",-87.6939346,41.6012878
"400","WALGREEN CO. STORE # 5055","12290 S PULASKI RD","ALSIP","60803-1405","OTHER","12290 S PULASKI RD ALSIP, IL 60803-1405",-87.7204171,41.6702007
"401","WALGREEN CO. STORE # 5103","5932 W CERMAK RD","CICERO","60804-2137","OTHER","5932 W CERMAK RD CICERO, IL 60804-2137",-87.7728742,41.8512073
"402","WALGREEN CO. STORE # 5832","1225 W DUNDEE RD","BUFFALO GROVE","60089-4009","OTHER","1225 W DUNDEE RD BUFFALO GROVE, IL 60089-4009",-87.9863778,42.1385047
"403","ADVOCATE CONDELL MEDICAL CENTER","","","","OTHER"," , IL ",-89.3985283,40.6331249
"404","ADVOCATE GOOD SAMARITAN HOSPITAL","","","","OTHER"," , IL ",-89.3985283,40.6331249
"405","ADVOCATE GOOD SHEPHERD HOSPITAL","","","","OTHER"," , IL ",-89.3985283,40.6331249
"406","AHS FAMILY HEALTH CENTER NILES LOCATION","","","","OTHER"," , IL ",-89.3985283,40.6331249
"407","ASIAN HUMAN SERVICES FAMILY HEALTH CENTER SKOKIE","","","","OTHER"," , IL ",-89.3985283,40.6331249
"408","DUPAGE MEDICAL GROUP","","","","OTHER"," , IL ",-89.3985283,40.6331249
"409","ELK GROVE VILLAGE","","","","OTHER"," , IL ",-89.3985283,40.6331249
"410","ERIE EVANSTON-SKOKIE","","","","OTHER"," , IL ",-89.3985283,40.6331249
"411","FAMILY MEDICINE SPECIALISTS MT PROSPECT","","","","OTHER"," , IL ",-89.3985283,40.6331249
"412","KMART PHARMACY 4685","","","","OTHER"," , IL ",-89.3985283,40.6331249
"413","LAKE STREET FAMILY PHYSICIANS","","","","OTHER"," , IL ",-89.3985283,40.6331249
"414","MARIANO PHARMACY  501","","","","OTHER"," , IL ",-89.3985283,40.6331249
"415","MARIANO PHARMACY  524","","","","OTHER"," , IL ",-89.3985283,40.6331249
"416","NORTHSHORE UNIVERSITY HEALTHSYSTEM EVANSTON HOSPITAL","","","","OTHER"," , IL ",-89.3985283,40.6331249
"417","PALOS TOWNSHIP HEALTH SERVICE","","","","OTHER"," , IL ",-89.3985283,40.6331249
"418","PCC CLINIC AT THE BOULEVARD","","","","OTHER"," , IL ",-89.3985283,40.6331249
"419","PCC LAKE STREED FAMILY HEALTH CENTER","","","","OTHER"," , IL ",-89.3985283,40.6331249
"420","PHYSICIANS IMMEDIATE CARE","","","","OTHER"," , IL ",-89.3985283,40.6331249
"421","PHYSICIANS IMMEDIATE CARE","","","","OTHER"," , IL ",-89.3985283,40.6331249
"422","PHYSICIANS IMMEDIATE CARE","","","","OTHER"," , IL ",-89.3985283,40.6331249
"423","PHYSICIANS IMMEDIATE CARE","","","","OTHER"," , IL ",-89.3985283,40.6331249
"424","PHYSICIANS IMMEDIATE CARE","","","","OTHER"," , IL ",-89.3985283,40.6331249
"425","PHYSICIANS IMMEDIATE CARE","","","","OTHER"," , IL ",-89.3985283,40.6331249
"426","PLUMBERS LOCAL 130 US WELLNESS CENTER","","","","OTHER"," , IL ",-89.3985283,40.6331249
"427","SENECA HEALTH CENTER","","","","OTHER"," , IL ",-89.3985283,40.6331249
"428","WEST SUBURBAN MEDICAL CENTER","","","","OTHER"," , IL ",-89.3985283,40.6331249
